{"type": "FeatureCollection", "features": [ {"type": "Feature", "properties": {"norad_id": 66654, "name": "JACK E", "group": "last-30-days", "lat": 19.77418373071579, "lon": 104.02371756356199, "alt_km": 588.3709169974854, "timestamp": "2025-12-20T03:42:46.119162+00:00", "meta": {"OBJECT_NAME": "JACK E", "OBJECT_ID": "2025-274E", "EPOCH": "2025-12-19T10:54:10.293120", "MEAN_MOTION": 14.92116617, "ECCENTRICITY": 0.0012028, "INCLINATION": 97.7402, "RA_OF_ASC_NODE": 280.5329, "ARG_OF_PERICENTER": 230.5393, "MEAN_ANOMALY": 129.4762, "EPHEMERIS_TYPE": 0, "CLASSIFICATION_TYPE": "U", "NORAD_CAT_ID": 66654, "ELEMENT_SET_NO": 999, "REV_AT_EPOCH": 340, "BSTAR": 0.00014611, "MEAN_MOTION_DOT": 1.431e-05, "MEAN_MOTION_DDOT": 0}, "tle": {"line1": "1 66654U 25274E   25353.45428580  .00001431  00000+0  14611-3 0  9995", "line2": "2 66654  97.7402 280.5329 0012028 230.5393 129.4762 14.92116617  3401"}}, "geometry": {"type": "Point", "coordinates": [104.02371756356199, 19.77418373071579]}}, {"type": "Feature", "properties": {"norad_id": 66655, "name": "2025-274F", "group": "last-30-days", "lat": 41.114684412452725, "lon": 108.0178587514791, "alt_km": 593.7011347521548, "timestamp": "2025-12-20T03:42:46.119172+00:00", "meta": {"OBJECT_NAME": "2025-274F", "OBJECT_ID": "2025-274F", "EPOCH": "2025-12-18T18:53:07.339200", "MEAN_MOTION": 14.91174217, "ECCENTRICITY": 0.00049938, "INCLINATION": 97.7329, "RA_OF_ASC_NODE": 279.8662, "ARG_OF_PERICENTER": 2.8245, "MEAN_ANOMALY": 357.3001, "EPHEMERIS_TYPE": 0, "CLASSIFICATION_TYPE": "U", "NORAD_CAT_ID": 66655, "ELEMENT_SET_NO": 999, "REV_AT_EPOCH": 330, "BSTAR": -7.422034e-06, "MEAN_MOTION_DOT": -1.29e-06, "MEAN_MOTION_DDOT": 0}, "tle": {"line1": "1 66655U 25274F   25352.78689050 -.00000129  00000+0 -74220-5 0  9991", "line2": "2 66655  97.7329 279.8662 0004993   2.8245 357.3001 14.91174217  3305"}}, "geometry": {"type": "Point", "coordinates": [108.0178587514791, 41.114684412452725]}}, {"type": "Feature", "properties": {"norad_id": 66656, "name": "2025-274G", "group": "last-30-days", "lat": 4.136025265159786, "lon": 101.79052370758114, "alt_km": 588.0606079608497, "timestamp": "2025-12-20T03:42:46.119184+00:00", "meta": {"OBJECT_NAME": "2025-274G", "OBJECT_ID": "2025-274G", "EPOCH": "2025-12-19T17:16:17.353920", "MEAN_MOTION": 14.92312048, "ECCENTRICITY": 0.0012604, "INCLINATION": 97.7401, "RA_OF_ASC_NODE": 280.7995, "ARG_OF_PERICENTER": 231.3154, "MEAN_ANOMALY": 128.6938, "EPHEMERIS_TYPE": 0, "CLASSIFICATION_TYPE": "U", "NORAD_CAT_ID": 66656, "ELEMENT_SET_NO": 999, "REV_AT_EPOCH": 344, "BSTAR": 0.00015308, "MEAN_MOTION_DOT": 1.509e-05, "MEAN_MOTION_DDOT": 0}, "tle": {"line1": "1 66656U 25274G   25353.71964530  .00001509  00000+0  15308-3 0  9996", "line2": "2 66656  97.7401 280.7995 0012604 231.3154 128.6938 14.92312048  3443"}}, "geometry": {"type": "Point", "coordinates": [101.79052370758114, 4.136025265159786]}}, {"type": "Feature", "properties": {"norad_id": 66657, "name": "SPIRONE", "group": "last-30-days", "lat": -10.849593770611436, "lon": 99.73921793686144, "alt_km": 590.4582296630597, "timestamp": "2025-12-20T03:42:46.119195+00:00", "meta": {"OBJECT_NAME": "SPIRONE", "OBJECT_ID": "2025-274H", "EPOCH": "2025-12-19T17:12:18.686016", "MEAN_MOTION": 14.92491265, "ECCENTRICITY": 0.0010762, "INCLINATION": 97.74, "RA_OF_ASC_NODE": 280.8026, "ARG_OF_PERICENTER": 249.673, "MEAN_ANOMALY": 110.3333, "EPHEMERIS_TYPE": 0, "CLASSIFICATION_TYPE": "U", "NORAD_CAT_ID": 66657, "ELEMENT_SET_NO": 999, "REV_AT_EPOCH": 344, "BSTAR": 0.00014841, "MEAN_MOTION_DOT": 1.468e-05, "MEAN_MOTION_DDOT": 0}, "tle": {"line1": "1 66657U 25274H   25353.71688294  .00001468  00000+0  14841-3 0  9992", "line2": "2 66657  97.7400 280.8026 0010762 249.6730 110.3333 14.92491265  3440"}}, "geometry": {"type": "Point", "coordinates": [99.73921793686144, -10.849593770611436]}}, {"type": "Feature", "properties": {"norad_id": 66658, "name": "2025-274J", "group": "last-30-days", "lat": -25.290253547852746, "lon": 97.55470126994855, "alt_km": 589.8560567593358, "timestamp": "2025-12-20T03:42:46.119204+00:00", "meta": {"OBJECT_NAME": "2025-274J", "OBJECT_ID": "2025-274J", "EPOCH": "2025-12-19T09:05:48.692256", "MEAN_MOTION": 14.92660568, "ECCENTRICITY": 0.0011271, "INCLINATION": 97.7399, "RA_OF_ASC_NODE": 280.4766, "ARG_OF_PERICENTER": 254.1695, "MEAN_ANOMALY": 105.8282, "EPHEMERIS_TYPE": 0, "CLASSIFICATION_TYPE": "U", "NORAD_CAT_ID": 66658, "ELEMENT_SET_NO": 999, "REV_AT_EPOCH": 339, "BSTAR": 0.0001503, "MEAN_MOTION_DOT": 1.494e-05, "MEAN_MOTION_DDOT": 0}, "tle": {"line1": "1 66658U 25274J   25353.37903579  .00001494  00000+0  15030-3 0  9991", "line2": "2 66658  97.7399 280.4766 0011271 254.1695 105.8282 14.92660568  3392"}}, "geometry": {"type": "Point", "coordinates": [97.55470126994855, -25.290253547852746]}}, {"type": "Feature", "properties": {"norad_id": 66659, "name": "JACK K", "group": "last-30-days", "lat": -40.728482695677236, "lon": 94.52152022687257, "alt_km": 588.5582709714909, "timestamp": "2025-12-20T03:42:46.119214+00:00", "meta": {"OBJECT_NAME": "JACK K", "OBJECT_ID": "2025-274K", "EPOCH": "2025-12-19T09:01:45.234336", "MEAN_MOTION": 14.92845388, "ECCENTRICITY": 0.001198, "INCLINATION": 97.7401, "RA_OF_ASC_NODE": 280.481, "ARG_OF_PERICENTER": 255.6276, "MEAN_ANOMALY": 104.3614, "EPHEMERIS_TYPE": 0, "CLASSIFICATION_TYPE": "U", "NORAD_CAT_ID": 66659, "ELEMENT_SET_NO": 999, "REV_AT_EPOCH": 339, "BSTAR": 0.00014908, "MEAN_MOTION_DOT": 1.489e-05, "MEAN_MOTION_DDOT": 0}, "tle": {"line1": "1 66659U 25274K   25353.37621799  .00001489  00000+0  14908-3 0  9990", "line2": "2 66659  97.7401 280.4810 0011980 255.6276 104.3614 14.92845388  3393"}}, "geometry": {"type": "Point", "coordinates": [94.52152022687257, -40.728482695677236]}}, {"type": "Feature", "properties": {"norad_id": 66660, "name": "K-HERO", "group": "last-30-days", "lat": -53.143296419249495, "lon": 90.79910010599446, "alt_km": 587.370931274846, "timestamp": "2025-12-20T03:42:46.119224+00:00", "meta": {"OBJECT_NAME": "K-HERO", "OBJECT_ID": "2025-274L", "EPOCH": "2025-12-19T08:58:28.231104", "MEAN_MOTION": 14.92997006, "ECCENTRICITY": 0.0012565, "INCLINATION": 97.7404, "RA_OF_ASC_NODE": 280.4848, "ARG_OF_PERICENTER": 256.3531, "MEAN_ANOMALY": 103.6289, "EPHEMERIS_TYPE": 0, "CLASSIFICATION_TYPE": "U", "NORAD_CAT_ID": 66660, "ELEMENT_SET_NO": 999, "REV_AT_EPOCH": 339, "BSTAR": 0.00016428, "MEAN_MOTION_DOT": 1.653e-05, "MEAN_MOTION_DDOT": 0}, "tle": {"line1": "1 66660U 25274L   25353.37393786  .00001653  00000+0  16428-3 0  9996", "line2": "2 66660  97.7404 280.4848 0012565 256.3531 103.6289 14.92997006  3396"}}, "geometry": {"type": "Point", "coordinates": [90.79910010599446, -53.143296419249495]}}, {"type": "Feature", "properties": {"norad_id": 66661, "name": "SNUGLITE-III", "group": "last-30-days", "lat": -64.92159053868743, "lon": 84.36052613796146, "alt_km": 586.3459123584889, "timestamp": "2025-12-20T03:42:46.119236+00:00", "meta": {"OBJECT_NAME": "SNUGLITE-III", "OBJECT_ID": "2025-274M", "EPOCH": "2025-12-19T04:05:47.445792", "MEAN_MOTION": 14.93131354, "ECCENTRICITY": 0.00131617, "INCLINATION": 97.7404, "RA_OF_ASC_NODE": 280.2891, "ARG_OF_PERICENTER": 258.3586, "MEAN_ANOMALY": 101.6156, "EPHEMERIS_TYPE": 0, "CLASSIFICATION_TYPE": "U", "NORAD_CAT_ID": 66661, "ELEMENT_SET_NO": 999, "REV_AT_EPOCH": 336, "BSTAR": 0.00017599835, "MEAN_MOTION_DOT": 1.781e-05, "MEAN_MOTION_DDOT": 0}, "tle": {"line1": "1 66661U 25274M   25353.17068803  .00001781  00000+0  17600-3 0  9999", "line2": "2 66661  97.7404 280.2891 0013161 258.3586 101.6156 14.93131354  3363"}}, "geometry": {"type": "Point", "coordinates": [84.36052613796146, -64.92159053868743]}}, {"type": "Feature", "properties": {"norad_id": 66662, "name": "2025-274N", "group": "last-30-days", "lat": -69.42552633105316, "lon": 80.0142013922097, "alt_km": 585.8112140640933, "timestamp": "2025-12-20T03:42:46.119273+00:00", "meta": {"OBJECT_NAME": "2025-274N", "OBJECT_ID": "2025-274N", "EPOCH": "2025-12-19T18:33:01.996128", "MEAN_MOTION": 14.93187641, "ECCENTRICITY": 0.0013627, "INCLINATION": 97.7406, "RA_OF_ASC_NODE": 280.884, "ARG_OF_PERICENTER": 255.8847, "MEAN_ANOMALY": 104.0858, "EPHEMERIS_TYPE": 0, "CLASSIFICATION_TYPE": "U", "NORAD_CAT_ID": 66662, "ELEMENT_SET_NO": 999, "REV_AT_EPOCH": 345, "BSTAR": 0.00014907, "MEAN_MOTION_DOT": 1.502e-05, "MEAN_MOTION_DDOT": 0}, "tle": {"line1": "1 66662U 25274N   25353.77293977  .00001502  00000+0  14907-3 0  9996", "line2": "2 66662  97.7406 280.8840 0013627 255.8847 104.0858 14.93187641  3451"}}, "geometry": {"type": "Point", "coordinates": [80.0142013922097, -69.42552633105316]}}, {"type": "Feature", "properties": {"norad_id": 66663, "name": "KSLV-II R/B", "group": "last-30-days", "lat": -63.72078146912902, "lon": 85.43595182253782, "alt_km": 556.0219168398071, "timestamp": "2025-12-20T03:42:46.119285+00:00", "meta": {"OBJECT_NAME": "KSLV-II R/B", "OBJECT_ID": "2025-274P", "EPOCH": "2025-12-19T10:34:51.191328", "MEAN_MOTION": 14.9743123, "ECCENTRICITY": 0.0056856, "INCLINATION": 97.7415, "RA_OF_ASC_NODE": 280.7205, "ARG_OF_PERICENTER": 296.2719, "MEAN_ANOMALY": 63.2667, "EPHEMERIS_TYPE": 0, "CLASSIFICATION_TYPE": "U", "NORAD_CAT_ID": 66663, "ELEMENT_SET_NO": 999, "REV_AT_EPOCH": 341, "BSTAR": 0.00065743, "MEAN_MOTION_DOT": 7.848e-05, "MEAN_MOTION_DDOT": 0}, "tle": {"line1": "1 66663U 25274P   25353.44087027  .00007848  00000+0  65743-3 0  9991", "line2": "2 66663  97.7415 280.7205 0056856 296.2719  63.2667 14.97431230  3414"}}, "geometry": {"type": "Point", "coordinates": [85.43595182253782, -63.72078146912902]}}]}